{"type": "Feature", "properties": {"nom": "Zone de service TamCar", "rayon_m": 15000, "marge_m": 2000}, "geometry": {"type": "Polygon", "coordinates": [[[2.1618297444996197, 6.230746749332237], [2.152961854129195, 6.226035962935181], [2.1438029406656947, 6.2219116775719385], [2.1343922239826725, 6.218391554065606], [2.1247700022137246, 6.215490666125457], [2.114977479189695, 6.213221435799004], [2.1050565879975496, 6.211593580278883], [2.095049811416455, 6.210614070292344], [2.085, 6.210287100251527], [2.074950188583545, 6.210614070292345], [2.0649434120024504, 6.211593580278883], [2.0550225208103043, 6.213221435799004], [2.0452299977862753, 6.215490666125457], [2.0356077760173275, 6.218391554065606], [2.0261970593343053, 6.2219116775719385], [2.017038145870805, 6.226035962935181], [2.00817025550038, 6.230746749332237], [1.9996313618910195, 6.23602386445254], [1.9914580298960731, 6.241844710878989], [1.9836852589779363, 6.248184362853552], [1.976346333334978, 6.255015673013194], [1.9694726793734936, 6.262309388639048], [1.963093731135009, 6.270034276921055], [1.957236804255195, 6.2781572587016425], [1.951926978994123, 6.286643550125764], [1.94718699283874, 6.295456811590703], [1.9430371431374593, 6.304559303357829], [1.9394952001837984, 6.313912047159956], [1.9365763311212536, 6.323474993112264], [1.9342930349952636, 6.333207191212054], [1.9326550892303784, 6.34306696669295], [1.9316695077618247, 6.353012098482641], [1.9313405110007604, 6.363], [1.9316695077618247, 6.37298790151736], [1.9326550892303784, 6.382933033307051], [1.9342930349952636, 6.392792808787947], [1.9365763311212536, 6.402525006887737], [1.9394952001837984, 6.412087952840045], [1.9430371431374593, 6.421440696642172], [1.94718699283874, 6.430543188409298], [1.951926978994123, 6.439356449874237], [1.957236804255195, 6.447842741298358], [1.963093731135009, 6.455965723078946], [1.9694726793734936, 6.463690611360953], [1.976346333334978, 6.470984326986807], [1.9836852589779363, 6.477815637146449], [1.9914580298960731, 6.484155289121012], [1.9996313618910193, 6.489976135547461], [2.00817025550038, 6.495253250667764], [2.017038145870805, 6.49996403706482], [2.0261970593343053, 6.504088322428062], [2.0356077760173275, 6.507608445934395], [2.0452299977862753, 6.510509333874544], [2.055022520810305, 6.512778564200997], [2.0649434120024504, 6.514406419721118], [2.074950188583545, 6.515385929707656], [2.085, 6.515712899748474], [2.095049811416455, 6.515385929707656], [2.1050565879975496, 6.514406419721118], [2.114977479189695, 6.512778564200997], [2.118021409450155, 6.512073191454699], [2.1231672600458014, 6.515253250667763], [2.1320354961594408, 6.5199640370648195], [2.141194766712626, 6.524088322428062], [2.150605850302691, 6.527608445934394], [2.1602284472248883, 6.5305093338745435], [2.170021352041908, 6.532778564200997], [2.1799426300318903, 6.534406419721117], [2.1899497967593393, 6.5353859297076555], [2.2, 6.535712899748473], [2.210050203240661, 6.5353859297076555], [2.22005736996811, 6.534406419721117], [2.2299786479580925, 6.532778564200997], [2.239771552775112, 6.5305093338745435], [2.2493941496973093, 6.527608445934394], [2.2588052332873745, 6.524088322428062], [2.2679645038405596, 6.5199640370648195], [2.276832739954199, 6.515253250667763], [2.2853719664797776, 6.50997613554746], [2.293545617138347, 6.5041552891210115], [2.3013186911029457, 6.497815637146449], [2.3086579028775134, 6.490984326986807], [2.3155318248304946, 6.483690611360952], [2.321911021772783, 6.475965723078946], [2.325051312137584, 6.471610618866529], [2.3263459103243496, 6.472984326986807], [2.333684864539225, 6.479815637146449], [2.341457665718326, 6.486155289121012], [2.3496310295337013, 6.491976135547461], [2.3581699563866962, 6.497253250667764], [2.367037881281606, 6.50196403706482], [2.376196830402603, 6.506088322428062], [2.3856075837234423, 6.509608445934394], [2.3952298429536394, 6.512509333874544], [2.405022404101935, 6.514778564200997], [2.41494333391811, 6.516406419721117], [2.424950149457603, 6.517385929707656], [2.435, 6.5177128997484735], [2.445049850542397, 6.517385929707656], [2.4525866942415844, 6.51664819114925], [2.452614930082176, 6.51693303330705], [2.454253307620636, 6.526792808787946], [2.456537205638918, 6.536525006887737], [2.4594568441350764, 6.546087952840044], [2.4629997207688406, 6.555440696642171], [2.4671506643985524, 6.5645431884092975], [2.471891900046324, 6.573356449874236], [2.477203125013225, 6.581842741298358], [2.483061595818552, 6.5899657230789455], [2.489442225590909, 6.597690611360952], [2.4963176914940375, 6.6049843269868065], [2.5036585517274004, 6.6118156371464485], [2.5114333716004884, 6.618155289121011], [2.5196088581409937, 6.62397613554746], [2.5281500026604258, 6.629253250667763], [2.5370202306666916, 6.633964037064819], [2.5461815584816874, 6.638088322428062], [2.5555947558932357, 6.641608445934394], [2.5652195141448804, 6.644509333874543], [2.575014618544168, 6.646778564200996], [2.5849381249502885, 6.648406419721117], [2.5949475393853274, 6.649385929707655], [2.605, 6.649712899748473], [2.6150524606146726, 6.649385929707655], [2.6250618750497114, 6.648406419721117], [2.634985381455832, 6.646778564200996], [2.6447804858551196, 6.644509333874543], [2.6544052441067643, 6.641608445934394], [2.6638184415183126, 6.638088322428062], [2.6729797693333084, 6.633964037064819], [2.6818499973395746, 6.629253250667763], [2.6903911418590063, 6.62397613554746], [2.6985666283995116, 6.618155289121011], [2.7063414482725996, 6.6118156371464485], [2.7136823085059625, 6.6049843269868065], [2.720557774409091, 6.597690611360952], [2.726938404181448, 6.5899657230789455], [2.732796874986775, 6.581842741298358], [2.738108099953676, 6.573356449874236], [2.7428493356014476, 6.5645431884092975], [2.7470002792311594, 6.555440696642171], [2.7505431558649236, 6.546087952840044], [2.753462794361082, 6.536525006887737], [2.755746692379364, 6.526792808787946], [2.757385069917824, 6.51693303330705], [2.7583709111923147, 6.506987901517359], [2.758699994679149, 6.497], [2.7583709111923147, 6.487012098482641], [2.757385069917824, 6.4770669666929495], [2.755746692379364, 6.4672071912120535], [2.753462794361082, 6.457474993112263], [2.751617811513349, 6.4514319602919254], [2.7527636931526827, 6.449842741298358], [2.7580735390859745, 6.441356449874236], [2.7628135436950796, 6.432543188409298], [2.7669634095525617, 6.423440696642172], [2.7705053662957204, 6.4140879528400445], [2.773424246722011, 6.404525006887737], [2.775707551737333, 6.394792808787947], [2.7773455038790713, 6.384933033307051], [2.778331089184692, 6.374987901517359], [2.7786600872266076, 6.365], [2.778331089184692, 6.355012098482641], [2.7773455038790713, 6.34506696669295], [2.775707551737333, 6.335207191212054], [2.773424246722011, 6.325474993112263], [2.7705053662957204, 6.315912047159956], [2.7669634095525617, 6.306559303357829], [2.7628135436950796, 6.297456811590703], [2.7580735390859745, 6.288643550125764], [2.7527636931526827, 6.280157258701642], [2.7469067434706713, 6.272034276921055], [2.7405277703976556, 6.264309388639048], [2.7336540896756505, 6.257015673013194], [2.726315135460775, 6.250184362853552], [2.718542334281674, 6.243844710878989], [2.7103689704662988, 6.23802386445254], [2.701830043613304, 6.232746749332237], [2.692962118718394, 6.228035962935181], [2.683803169597397, 6.223911677571938], [2.6743924162765578, 6.220391554065606], [2.6647701570463607, 6.217490666125457], [2.6549775958980653, 6.215221435799004], [2.64505666608189, 6.213593580278883], [2.635049850542397, 6.212614070292345], [2.625, 6.212287100251527], [2.614950149457603, 6.212614070292345], [2.60494333391811, 6.213593580278883], [2.5950224041019347, 6.215221435799004], [2.5852298429536393, 6.217490666125457], [2.5756075837234422, 6.220391554065606], [2.566196830402603, 6.223911677571938], [2.557037881281606, 6.228035962935181], [2.548169956386696, 6.232746749332237], [2.5396310295337012, 6.23802386445254], [2.531457665718326, 6.243844710878989], [2.5300000000000002, 6.2450336121690775], [2.528542334281674, 6.243844710878989], [2.520368970466299, 6.23802386445254], [2.511830043613304, 6.232746749332237], [2.5029621187183935, 6.228035962935181], [2.4938031695973972, 6.223911677571938], [2.484392416276558, 6.220391554065606], [2.4747701570463607, 6.217490666125457], [2.4649775958980653, 6.215221435799004], [2.45505666608189, 6.213593580278883], [2.445049850542397, 6.212614070292345], [2.435, 6.212287100251527], [2.424950149457603, 6.212614070292345], [2.41494333391811, 6.213593580278883], [2.405022404101935, 6.215221435799004], [2.3952298429536394, 6.217490666125457], [2.3856075837234423, 6.220391554065606], [2.376196830402603, 6.223911677571938], [2.367037881281606, 6.228035962935181], [2.3581699563866962, 6.232746749332237], [2.3496310295337013, 6.23802386445254], [2.341457665718326, 6.243844710878989], [2.333684864539225, 6.250184362853552], [2.3263459103243496, 6.257015673013194], [2.3194722296023444, 6.264309388639048], [2.3130932565293287, 6.272034276921055], [2.3099528466964547, 6.276389699665143], [2.3086579028775134, 6.275015673013193], [2.3013186911029457, 6.268184362853551], [2.293545617138347, 6.2618447108789885], [2.2853719664797776, 6.25602386445254], [2.276832739954199, 6.250746749332237], [2.2679645038405596, 6.2460359629351805], [2.2588052332873745, 6.241911677571938], [2.2493941496973093, 6.238391554065606], [2.239771552775112, 6.2354906661254565], [2.2299786479580925, 6.2332214357990035], [2.22005736996811, 6.231593580278883], [2.210050203240661, 6.230614070292344], [2.2, 6.230287100251527], [2.1899497967593393, 6.2306140702923445], [2.1799426300318903, 6.231593580278883], [2.170021352041908, 6.2332214357990035], [2.1669759149590084, 6.23392713020888], [2.1618297444996197, 6.230746749332237]]]}}